NANOSATC-BR1            
1 40024U 14033Q   26068.98267556  .00020336  00000+0  74295-3 0  9994
2 40024  98.0845  92.7804 0004644 147.6715 212.4808 15.28136801638811
STARLINK-30264          
1 57534U 23115P   26068.40791260 -.00000064  00000+0  71732-5 0  9992
2 57534  42.9960 210.4823 0000753 146.8642 213.2257 15.27567754145317
